NORAD_CAT_ID,OBJECT_NAME,OBJECT_TYPE,EPOCH,MEAN_MOTION,ECCENTRICITY,INCLINATION,RA_OF_ASC_NODE,ARG_OF_PERICENTER,MEAN_ANOMALY,BSTAR,MEAN_MOTION_DOT,MEAN_MOTION_DDOT,TLE_LINE0,TLE_LINE1,TLE_LINE2,SEMIMAJOR_AXIS,PERIOD,APOGEE,PERIGEE,DECAYED
53793.0,STARLINK-4728,PAYLOAD,2024-03-21 14:00:01,15.08853938,8.9e-05,53.2137,257.6247,89.2684,114.944,0.00010291,1.351e-05,0.0,0 STARLINK-4728,1 53793U 22111W   24081.58334491  .00001351  00000-0  10291-3 0  9992,2 53793  53.2137 257.6247 0000890  89.2684 114.9440 15.08853938  5870,6917.838,95.437,540.318,539.087,0.0
53793.0,STARLINK-4728,PAYLOAD,2024-03-21 22:00:01,15.08848853,9.82e-05,53.2137,256.1296,73.0062,142.8804,-0.0015854,-0.00025436,0.0,0 STARLINK-4728,1 53793U 22111W   24081.91668981 -.00025436  00000-0 -15854-2 0  9994,2 53793  53.2137 256.1296 0000982  73.0062 142.8804 15.08848853 84524,6917.853,95.437,540.398,539.039,0.0
53793.0,STARLINK-4728,PAYLOAD,2024-03-22 11:21:19,15.08841987,8.14e-05,53.2167,253.6286,99.5347,260.5737,0.00010686,1.413e-05,0.0,0 STARLINK-4728,1 53793U 22111W   24082.47314448  .00001413  00000-0  10686-3 0  9998,2 53793  53.2167 253.6286 0000814  99.5347 260.5737 15.08841987 84615,6917.874,95.437,540.302,539.176,0.0
53793.0,STARLINK-4728,PAYLOAD,2024-03-22 20:53:38,15.0884483,8.23e-05,53.2162,251.8435,103.1408,256.9676,0.00011457,1.536e-05,0.0,0 STARLINK-4728,1 53793U 22111W   24082.87058175  .00001536  00000-0  11457-3 0  9997,2 53793  53.2162 251.8435 0000823 103.1408 256.9676 15.08844830 85472,6917.866,95.437,540.3,539.161,0.0
53793.0,STARLINK-4728,PAYLOAD,2024-03-23 11:12:07,15.08836274,9.93e-05,53.2155,249.1688,68.6633,291.4465,7.707e-05,9.39e-06,0.0,0 STARLINK-4728,1 53793U 22111W   24083.46675050  .00000939  00000-0  77070-4 0  9990,2 53793  53.2155 249.1688 0000993  68.6633 291.4465 15.08836274 84761,6917.892,95.438,540.444,539.07,0.0
53793.0,STARLINK-4728,PAYLOAD,2024-03-23 15:58:16,15.08832268,8.66e-05,53.2164,248.276,74.8525,285.2563,6.712e-05,7.8e-06,0.0,0 STARLINK-4728,1 53793U 22111W   24083.66547291  .00000780  00000-0  67120-4 0  9996,2 53793  53.2164 248.2760 0000866  74.8525 285.2563 15.08832268 85591,6917.904,95.438,540.368,539.17,0.0
53793.0,STARLINK-4728,PAYLOAD,2024-03-24 14:13:40,15.08835758,0.0001485,53.2168,244.1099,125.4642,234.6489,1.4105e-05,-6.3e-07,0.0,0 STARLINK-4728,1 53793U 22111W   24084.59283226 -.00000063  00000-0  14105-4 0  9994,2 53793  53.2168 244.1099 0001485 125.4642 234.6489 15.08835758 85734,6917.893,95.438,540.786,538.731,0.0
53793.0,STARLINK-4728,PAYLOAD,2024-03-24 17:24:27,15.08836323,0.0001064,53.2167,243.5169,103.0897,257.0214,1.0676e-05,-1.18e-06,0.0,0 STARLINK-4728,1 53793U 22111W   24084.72531325 -.00000118  00000-0  10676-4 0  9995,2 53793  53.2167 243.5169 0001064 103.0897 257.0214 15.08836323 84958,6917.892,95.438,540.493,539.021,0.0
53793.0,STARLINK-4728,PAYLOAD,2024-03-25 02:56:44,15.08858811,9.94e-05,53.2169,241.7337,97.7627,262.3478,0.00015348,2.157e-05,0.0,0 STARLINK-4728,1 53793U 22111W   24085.12273380  .00002157  00000-0  15348-3 0  9998,2 53793  53.2169 241.7337 0000994  97.7627 262.3478 15.08858811 85013,6917.823,95.436,540.376,539.0,0.0
53793.0,STARLINK-4728,PAYLOAD,2024-03-25 10:53:41,15.08834349,0.0001434,53.2167,240.2455,84.4122,275.7033,5.5469e-05,5.95e-06,0.0,0 STARLINK-4728,1 53793U 22111W   24085.45395340  .00000595  00000-0  55469-4 0  9998,2 53793  53.2167 240.2455 0001434  84.4122 275.7033 15.08834349 85069,6917.898,95.438,540.755,538.771,0.0
53793.0,STARLINK-4728,PAYLOAD,2024-03-25 17:15:13,15.08842874,0.000117,53.2164,239.0555,94.3244,265.7882,0.00013244,1.821e-05,0.0,0 STARLINK-4728,1 53793U 22111W   24085.71890646  .00001821  00000-0  13244-3 0  9993,2 53793  53.2164 239.0555 0001170  94.3244 265.7882 15.08842874 85103,6917.872,95.437,540.546,538.927,0.0
53793.0,STARLINK-4728,PAYLOAD,2024-03-26 13:55:16,15.0881993,0.0001347,53.2169,235.1959,101.2245,258.8899,-5.9313e-06,-3.82e-06,0.0,0 STARLINK-4728,1 53793U 22111W   24086.58005339 -.00000382  00000-0 -59313-5 0  9998,2 53793  53.2169 235.1959 0001347 101.2245 258.8899 15.08819930 85230,6917.942,95.439,540.739,538.875,0.0
53793.0,STARLINK-4728,PAYLOAD,2024-03-26 17:06:02,15.08823206,0.00013,53.2165,234.6005,99.2498,260.8641,2.0649e-05,4.1e-07,0.0,0 STARLINK-4728,1 53793U 22111W   24086.71253207  .00000041  00000-0  20649-4 0  9991,2 53793  53.2165 234.6005 0001300  99.2498 260.8641 15.08823206 86057,6917.932,95.439,540.696,538.897,0.0
53793.0,STARLINK-4728,PAYLOAD,2024-03-27 02:38:20,15.08839266,0.0001236,53.2168,232.8135,85.4931,274.6202,7.3078e-05,8.75e-06,0.0,0 STARLINK-4728,1 53793U 22111W   24087.10996232  .00000875  00000-0  73078-4 0  9996,2 53793  53.2168 232.8135 0001236  85.4931 274.6202 15.08839266 85318,6917.883,95.438,540.603,538.893,0.0
53793.0,STARLINK-4728,PAYLOAD,2024-03-27 13:46:02,15.0883707,0.0001578,53.2167,230.7332,88.1877,271.9296,9.2794e-05,1.189e-05,0.0,0 STARLINK-4728,1 53793U 22111W   24087.57364382  .00001189  00000-0  92794-4 0  9997,2 53793  53.2167 230.7332 0001578  88.1877 271.9296 15.08837070 86181,6917.889,95.438,540.846,538.663,0.0
53793.0,STARLINK-4728,PAYLOAD,2024-03-27 16:56:48,15.08849324,0.0001189,53.2159,230.1353,82.8467,277.266,0.0001322,1.817e-05,0.0,0 STARLINK-4728,1 53793U 22111W   24087.70611312  .00001817  00000-0  13220-3 0  9994,2 53793  53.2159 230.1353 0001189  82.8467 277.2660 15.08849324 85406,6917.852,95.437,540.539,538.894,0.0
53793.0,STARLINK-4728,PAYLOAD,2024-03-28 15:12:13,15.08828169,8.27e-05,53.2172,225.9719,89.5008,270.6079,9.7768e-08,-2.86e-06,0.0,0 STARLINK-4728,1 53793U 22111W   24088.63349334 -.00000286  00000-0  97768-7 0  9992,2 53793  53.2172 225.9719 0000827  89.5008 270.6079 15.08828169 86341,6917.917,95.438,540.354,539.209,0.0
53793.0,STARLINK-4728,PAYLOAD,2024-03-28 18:22:59,15.08838112,0.0001561,53.2174,225.3776,84.5864,275.5307,8.2023e-05,1.018e-05,0.0,0 STARLINK-4728,1 53793U 22111W   24088.76596622  .00001018  00000-0  82023-4 0  9998,2 53793  53.2174 225.3776 0001561  84.5864 275.5307 15.08838112 85561,6917.886,95.438,540.831,538.671,0.0
53793.0,STARLINK-4728,PAYLOAD,2024-03-29 15:02:59,15.08845715,0.0001771,53.2168,221.5155,87.8439,272.2756,6.9749e-05,8.22e-06,0.0,0 STARLINK-4728,1 53793U 22111W   24089.62708107  .00000822  00000-0  69749-4 0  9999,2 53793  53.2168 221.5155 0001771  87.8439 272.2756 15.08845715 86492,6917.863,95.437,540.953,538.503,0.0
53793.0,STARLINK-4728,PAYLOAD,2024-03-29 18:13:46,15.08843175,0.0001551,53.2177,220.9215,89.5815,270.5354,1.4359e-05,-5.9e-07,0.0,0 STARLINK-4728,1 53793U 22111W   24089.75956347 -.00000059  00000-0  14359-4 0  9994,2 53793  53.2177 220.9215 0001551  89.5815 270.5354 15.08843175 86511,6917.871,95.437,540.809,538.663,0.0
53793.0,STARLINK-4728,PAYLOAD,2024-03-30 02:10:40,15.08858233,0.0001358,53.2172,219.4301,102.1518,257.9627,4.6434e-05,4.51e-06,0.0,0 STARLINK-4728,1 53793U 22111W   24090.09074921  .00000451  00000-0  46434-4 0  9996,2 53793  53.2172 219.4301 0001358 102.1518 257.9627 15.08858233 85761,6917.825,95.436,540.629,538.75,0.0
53793.0,STARLINK-4728,PAYLOAD,2024-03-30 13:18:24,15.08835396,0.0001763,53.2161,217.3515,90.9535,269.1659,2.9069e-05,1.75e-06,0.0,0 STARLINK-4728,1 53793U 22111W   24090.55444483  .00000175  00000-0  29069-4 0  9999,2 53793  53.2161 217.3515 0001763  90.9535 269.1659 15.08835396 85839,6917.894,95.438,540.979,538.54,0.0
53793.0,STARLINK-4728,PAYLOAD,2024-03-31 14:44:33,15.08840459,0.0001538,53.2182,212.5936,96.6423,263.4744,4.4156e-05,4.15e-06,0.0,0 STARLINK-4728,1 53793U 22111W   24091.61428096  .00000415  00000-0  44156-4 0  9990,2 53793  53.2182 212.5936 0001538  96.6423 263.4744 15.08840459 86799,6917.879,95.438,540.808,538.68,0.0
53793.0,STARLINK-4728,PAYLOAD,2024-04-01 12:59:58,15.08826599,0.0001364,53.218,208.4306,89.7359,270.3789,4.3452e-05,4.03e-06,0.0,0 STARLINK-4728,1 53793U 22111W   24092.54165075  .00000403  00000-0  43452-4 0  9993,2 53793  53.2180 208.4306 0001364  89.7359 270.3789 15.08826599 86133,6917.921,95.438,540.73,538.843,0.0
53793.0,STARLINK-4728,PAYLOAD,2024-04-01 14:35:22,15.08813119,0.0001218,53.217,208.1314,93.5423,266.5708,0.00029275,4.371e-05,0.0,0 STARLINK-4728,1 53793U 22111W   24092.60789445  .00004371  00000-0  29275-3 0  9997,2 53793  53.2170 208.1314 0001218  93.5423 266.5708 15.08813119 86942,6917.963,95.439,540.67,538.985,0.0
53793.0,STARLINK-4728,PAYLOAD,2024-04-02 00:07:39,15.08843157,0.0001293,53.2177,206.3476,88.208,271.906,0.00010769,1.427e-05,0.0,0 STARLINK-4728,1 53793U 22111W   24093.00531883  .00001427  00000-0  10769-3 0  9990,2 53793  53.2177 206.3476 0001293  88.2080 271.9060 15.08843157 86206,6917.871,95.437,540.63,538.841,0.0
53793.0,STARLINK-4728,PAYLOAD,2024-04-02 11:15:22,15.08831455,0.000168,53.2185,204.2691,96.1597,263.9587,1.9434e-05,2.1e-07,0.0,0 STARLINK-4728,1 53793U 22111W   24093.46901061  .00000021  00000-0  19434-4 0  9997,2 53793  53.2185 204.2691 0001680  96.1597 263.9587 15.08831455 86272,6917.907,95.438,540.934,538.609,0.0
53793.0,STARLINK-4728,PAYLOAD,2024-04-02 14:26:09,15.08826205,0.000131,53.2185,203.6732,96.3042,263.8099,-3.0049e-05,-7.66e-06,0.0,0 STARLINK-4728,1 53793U 22111W   24093.60149592 -.00000766  00000-0 -30049-4 0  9999,2 53793  53.2185 203.6732 0001310  96.3042 263.8099 15.08826205 87093,6917.923,95.438,540.694,538.881,0.0
53793.0,STARLINK-4728,PAYLOAD,2024-04-02 23:58:29,15.08818486,0.0001222,53.2174,201.8882,84.5223,275.5909,-9.5105e-05,-1.8e-05,0.0,0 STARLINK-4728,1 53793U 22111W   24093.99894733 -.00001800  00000-0 -95105-4 0  9999,2 53793  53.2174 201.8882 0001222  84.5223 275.5909 15.08818486 86359,6917.946,95.439,540.657,538.966,0.0
53793.0,STARLINK-4728,PAYLOAD,2024-04-03 11:06:10,15.08830525,9.04e-05,53.217,199.8064,86.7018,273.4077,1.3477e-05,-7.3e-07,0.0,0 STARLINK-4728,1 53793U 22111W   24094.46262033 -.00000073  00000-0  13477-4 0  9996,2 53793  53.2170 199.8064 0000904  86.7018 273.4077 15.08830525 86424,6917.909,95.438,540.4,539.149,0.0
